$$SOE
2460154.500000000, A.D. 2023-Jul-29 00:00:00.0000, 4.788415433551700E+08, -3.464940207857408E+08, 1.130731346162184E+08,
2460161.500000000, A.D. 2023-Aug-05 00:00:00.0000, 4.840826102685808E+08, -3.392995021660702E+08, 1.131136493675003E+08,
2460168.500000000, A.D. 2023-Aug-12 00:00:00.0000, 4.892158444270555E+08, -3.320293962484941E+08, 1.131289657470418E+08,
2460175.500000000, A.D. 2023-Aug-19 00:00:00.0000, 4.942401537501416E+08, -3.246853599844875E+08, 1.131190927371988E+08,
2460182.500000000, A.D. 2023-Aug-26 00:00:00.0000, 4.991544704113523E+08, -3.172690646630163E+08, 1.130840445896421E+08,
2460189.500000000, A.D. 2023-Sep-02 00:00:00.0000, 5.039577509660430E+08, -3.097821955558681E+08, 1.130238408140937E+08,
2460196.500000000, A.D. 2023-Sep-09 00:00:00.0000, 5.086489764878700E+08, -3.022264516744896E+08, 1.129385061544755E+08,
2460203.500000000, A.D. 2023-Sep-16 00:00:00.0000, 5.132271528825492E+08, -2.946035456960516E+08, 1.128280705323529E+08,
2460210.500000000, A.D. 2023-Sep-23 00:00:00.0000, 5.176913117957879E+08, -2.869152037717646E+08, 1.126925689431151E+08,
2460217.500000000, A.D. 2023-Sep-30 00:00:00.0000, 5.220405117765965E+08, -2.791631640268513E+08, 1.125320414337871E+08,
2460224.500000000, A.D. 2023-Oct-07 00:00:00.0000, 5.262738373429770E+08, -2.713491742957404E+08, 1.123465333345838E+08,
2460231.500000000, A.D. 2023-Oct-14 00:00:00.0000, 5.303903969897459E+08, -2.634749924063880E+08, 1.121360953783104E+08,
2460238.500000000, A.D. 2023-Oct-21 00:00:00.0000, 5.343893233665506E+08, -2.555423874109896E+08, 1.119007835424124E+08,
2460245.500000000, A.D. 2023-Oct-28 00:00:00.0000, 5.382697742016457E+08, -2.475531395027782E+08, 1.116406589291854E+08,
2460252.500000000, A.D. 2023-Nov-04 00:00:00.0000, 5.420309327215046E+08, -2.395090393893479E+08, 1.113557877361354E+08,
2460259.500000000, A.D. 2023-Nov-11 00:00:00.0000, 5.456720077438316E+08, -2.314118877224418E+08, 1.110462412514412E+08,
2460266.500000000, A.D. 2023-Nov-18 00:00:00.0000, 5.491922336634409E+08, -2.232634946485210E+08, 1.107120958493612E+08,
2460273.500000000, A.D. 2023-Nov-25 00:00:00.0000, 5.525908704038117E+08, -2.150656794575427E+08, 1.103534329809557E+08,
2460280.500000000, A.D. 2023-Dec-02 00:00:00.0000, 5.558672033624934E+08, -2.068202703411694E+08, 1.099703391567874E+08,
2460287.500000000, A.D. 2023-Dec-09 00:00:00.0000, 5.590205434280993E+08, -1.985291043193703E+08, 1.095629059097176E+08,
2460294.500000000, A.D. 2023-Dec-16 00:00:00.0000, 5.620502273561931E+08, -1.901940273227980E+08, 1.091312297123653E+08,
2460301.500000000, A.D. 2023-Dec-23 00:00:00.0000, 5.649556188523408E+08, -1.818168937431787E+08, 1.086754118732889E+08,
2460308.500000000, A.D. 2023-Dec-30 00:00:00.0000, 5.677361090224802E+08, -1.733995644021858E+08, 1.081955586205947E+08,
2460315.500000000, A.D. 2024-Jan-06 00:00:00.0000, 5.703911144187169E+08, -1.649439052998765E+08, 1.076917813427093E+08,
2460322.500000000, A.D. 2024-Jan-13 00:00:00.0000, 5.729200758530308E+08, -1.564517889499791E+08, 1.071641965473161E+08,
2460329.500000000, A.D. 2024-Jan-20 00:00:00.0000, 5.753224592019889E+08, -1.479250952171928E+08, 1.066129256778413E+08,
2460336.500000000, A.D. 2024-Jan-27 00:00:00.0000, 5.775977561738040E+08, -1.393657110040572E+08, 1.060380950266326E+08,
2460343.500000000, A.D. 2024-Feb-03 00:00:00.0000, 5.797454846095747E+08, -1.307755297359881E+08, 1.054398357064466E+08,
2460350.500000000, A.D. 2024-Feb-10 00:00:00.0000, 5.817651885961931E+08, -1.221564509356255E+08, 1.048182836308482E+08,
2460357.500000000, A.D. 2024-Feb-17 00:00:00.0000, 5.836564385297146E+08, -1.135103798785739E+08, 1.041735794913044E+08,
2460364.500000000, A.D. 2024-Feb-24 00:00:00.0000, 5.854188311652409E+08, -1.048392273157460E+08, 1.035058687287847E+08,
2460371.500000000, A.D. 2024-Mar-02 00:00:00.0000, 5.870519896827997E+08, -9.614490929488276E+07, 1.028153014944613E+08,
2460378.500000000, A.D. 2024-Mar-09 00:00:00.0000, 5.885555639080881E+08, -8.742934714422359E+07, 1.021020325815724E+08,
2460385.500000000, A.D. 2024-Mar-16 00:00:00.0000, 5.899292310832084E+08, -7.869446742113060E+07, 1.013662213081837E+08,
2460392.500000000, A.D. 2024-Mar-23 00:00:00.0000, 5.911726970836585E+08, -6.994220071637025E+07, 1.006080314508857E+08,
2460399.500000000, A.D. 2024-Mar-30 00:00:00.0000, 5.922856958409383E+08, -6.117447934066603E+07, 9.982763143300852E+07,
2460406.500000000, A.D. 2024-Apr-06 00:00:00.0000, 5.932679872273525E+08, -5.239323726172280E+07, 9.902519446885476E+07,
2460413.500000000, A.D. 2024-Apr-13 00:00:00.0000, 5.941193569535618E+08, -4.360041145583323E+07, 9.820089840633291E+07,
2460420.500000000, A.D. 2024-Apr-20 00:00:00.0000, 5.948396175259337E+08, -3.479794199728329E+07, 9.735492557376936E+07,
2460427.500000000, A.D. 2024-Apr-27 00:00:00.0000, 5.954286087463171E+08, -2.598777144664121E+07, 9.648746272406504E+07,
2460434.500000000, A.D. 2024-May-04 00:00:00.0000, 5.958861978419989E+08, -1.717184424091685E+07, 9.559870101065548E+07,
2460441.500000000, A.D. 2024-May-11 00:00:00.0000, 5.962122794642409E+08, -8.352106186836880E+06, 9.468883596522221E+07,
2460448.500000000, A.D. 2024-May-18 00:00:00.0000, 5.964067756376944E+08, 4.694959649449885E+05, 9.375806747168092E+07,
2460455.500000000, A.D. 2024-May-25 00:00:00.0000, 5.964696356858965E+08, 9.291014857984804E+06, 9.280659973397444E+07,
2460462.500000000, A.D. 2024-Jun-01 00:00:00.0000, 5.964008361931580E+08, 1.811050272326978E+07, 9.183464122787836E+07,
2460469.500000000, A.D. 2024-Jun-08 00:00:00.0000, 5.962003812494076E+08, 2.692601140451600E+07, 9.084240461264467E+07,
2460476.500000000, A.D. 2024-Jun-15 00:00:00.0000, 5.958683033772129E+08, 3.573559276059948E+07, 8.983010661051731E+07,
2460483.500000000, A.D. 2024-Jun-22 00:00:00.0000, 5.954046641353348E+08, 4.453730062072077E+07, 8.879796804251394E+07,
2460490.500000000, A.D. 2024-Jun-29 00:00:00.0000, 5.948095522776270E+08, 5.332919247199055E+07, 8.774621406672087E+07,
2460497.500000000, A.D. 2024-Jul-06 00:00:00.0000, 5.940830821127335E+08, 6.210932840805759E+07, 8.667507417485426E+07,
2460504.500000000, A.D. 2024-Jul-13 00:00:00.0000, 5.932253940132807E+08, 7.087577016266890E+07, 8.558478199900888E+07,
2460511.500000000, A.D. 2024-Jul-20 00:00:00.0000, 5.922366550884472E+08, 7.962658137712315E+07, 8.447557520456725E+07,
2460518.500000000, A.D. 2024-Jul-27 00:00:00.0000, 5.911170593639112E+08, 8.835982814239809E+07, 8.334769545106366E+07,
2460525.500000000, A.D. 2024-Aug-03 00:00:00.0000, 5.898668277421765E+08, 9.707357944116756E+07, 8.220138836529088E+07,
2460532.500000000, A.D. 2024-Aug-10 00:00:00.0000, 5.884862079090798E+08, 1.057659074854814E+08, 8.103690351095468E+07,
2460539.500000000, A.D. 2024-Aug-17 00:00:00.0000, 5.869754742338423E+08, 1.144348879721627E+08, 7.985449435213505E+07,
2460546.500000000, A.D. 2024-Aug-24 00:00:00.0000, 5.853349276905886E+08, 1.230786002340571E+08, 7.865441820597163E+07,
2460553.500000000, A.D. 2024-Aug-31 00:00:00.0000, 5.835648959170837E+08, 1.316951272259793E+08, 7.743693616871870E+07,
2460560.500000000, A.D. 2024-Sep-07 00:00:00.0000, 5.816657337762200E+08, 1.402825554718577E+08, 7.620231299167797E+07,
2460567.500000000, A.D. 2024-Sep-14 00:00:00.0000, 5.796378245050554E+08, 1.488389759690217E+08, 7.495081698018083E+07,
2460574.500000000, A.D. 2024-Sep-21 00:00:00.0000, 5.774815794221435E+08, 1.573624864627692E+08, 7.368272013517201E+07,
2460581.500000000, A.D. 2024-Sep-28 00:00:00.0000, 5.751974357062812E+08, 1.658511918640805E+08, 7.239829831839025E+07,
2460588.500000000, A.D. 2024-Oct-05 00:00:00.0000, 5.727858559167620E+08, 1.743032028117993E+08, 7.109783110455000E+07,
2460595.500000000, A.D. 2024-Oct-12 00:00:00.0000, 5.702473288938546E+08, 1.827166353591703E+08, 6.978160159682682E+07,
2460602.500000000, A.D. 2024-Oct-19 00:00:00.0000, 5.675823702881268E+08, 1.910896115142277E+08, 6.844989634399146E+07,
2460609.500000000, A.D. 2024-Oct-26 00:00:00.0000, 5.647915226861874E+08, 1.994202598330543E+08, 6.710300529667863E+07,
2460616.500000000, A.D. 2024-Nov-02 00:00:00.0000, 5.618753555903101E+08, 2.077067159179669E+08, 6.574122176711186E+07,
2460623.500000000, A.D. 2024-Nov-09 00:00:00.0000, 5.588344653487730E+08, 2.159471228418041E+08, 6.436484238520285E+07,
2460630.500000000, A.D. 2024-Nov-16 00:00:00.0000, 5.556694750631837E+08, 2.241396314990558E+08, 6.297416704879691E+07,
2460637.500000000, A.D. 2024-Nov-23 00:00:00.0000, 5.523810345201952E+08, 2.322824008343133E+08, 6.156949885983087E+07,
2460644.500000000, A.D. 2024-Nov-30 00:00:00.0000, 5.489698203564442E+08, 2.403735979055482E+08, 6.015114402395120E+07,
2460651.500000000, A.D. 2024-Dec-07 00:00:00.0000, 5.454365368764285E+08, 2.484113982025633E+08, 5.871941170953126E+07,
2460658.500000000, A.D. 2024-Dec-14 00:00:00.0000, 5.417819168341551E+08, 2.563939874441328E+08, 5.727461402918421E+07,
2460665.500000000, A.D. 2024-Dec-21 00:00:00.0000, 5.380067198593237E+08, 2.643195636133088E+08, 5.581706625510696E+07,
2460672.500000000, A.D. 2024-Dec-28 00:00:00.0000, 5.341117305008661E+08, 2.721863362639718E+08, 5.434708684511845E+07,
2460679.500000000, A.D. 2025-Jan-04 00:00:00.0000, 5.300977584850231E+08, 2.799925254745338E+08, 5.286499723545453E+07,
2460686.500000000, A.D. 2025-Jan-11 00:00:00.0000, 5.259656393660979E+08, 2.877363621087193E+08, 5.137112170315649E+07,
2460693.500000000, A.D. 2025-Jan-18 00:00:00.0000, 5.217162346529720E+08, 2.954160884651240E+08, 4.986578730742340E+07,
2460700.500000000, A.D. 2025-Jan-25 00:00:00.0000, 5.173504316553752E+08, 3.030299588413403E+08, 4.834932384921563E+07,
2460707.500000000, A.D. 2025-Feb-01 00:00:00.0000, 5.128691432399523E+08, 3.105762399825804E+08, 4.682206382961100E+07,
2460714.500000000, A.D. 2025-Feb-08 00:00:00.0000, 5.082733075548881E+08, 3.180532114343400E+08, 4.528434240342452E+07,
2460721.500000000, A.D. 2025-Feb-15 00:00:00.0000, 5.035638877520663E+08, 3.254591657789225E+08, 4.373649732400115E+07,
$$EOE